STARLINK-31125          
1 58678U 23211M   26068.10153354 -.00000078  00000+0  66634-5 0  9992
2 58678  43.0021  88.6818 0000687 254.9458 105.1318 15.27579104123548
FLOCK 4G-14             
1 62667U 25009BL  26068.75869712  .00011310  00000+0  42676-3 0  9993
2 62667  97.4064 151.1836 0003006 318.3639  41.7371 15.27197201 63711
